[{"OBJECT_NAME":"STARLINK-30988","OBJECT_ID":"2023-191X","EPOCH":"2026-03-09T10:30:18.410112","MEAN_MOTION":15.27584834,"ECCENTRICITY":0.00011644,"INCLINATION":42.9991,"RA_OF_ASC_NODE":104.7823,"ARG_OF_PERICENTER":338.4821,"MEAN_ANOMALY":21.5982,"EPHEMERIS_TYPE":0,"CLASSIFICATION_TYPE":"U","NORAD_CAT_ID":58529,"ELEMENT_SET_NO":999,"REV_AT_EPOCH":12543,"BSTAR":0.00021102299,"MEAN_MOTION_DOT":5.55e-5,"MEAN_MOTION_DDOT":0},{"OBJECT_NAME":"CZ-6A DEB","OBJECT_ID":"2022-151SD","EPOCH":"2026-03-09T21:25:15.700512","MEAN_MOTION":15.24469357,"ECCENTRICITY":0.00248717,"INCLINATION":98.6538,"RA_OF_ASC_NODE":157.5128,"ARG_OF_PERICENTER":174.047,"MEAN_ANOMALY":186.1065,"EPHEMERIS_TYPE":0,"CLASSIFICATION_TYPE":"U","NORAD_CAT_ID":54940,"ELEMENT_SET_NO":999,"REV_AT_EPOCH":17680,"BSTAR":0.0087519903,"MEAN_MOTION_DOT":0.00223015,"MEAN_MOTION_DDOT":0}]
